{
  "type": "FeatureCollection",
  "features": [
    {
      "type": "Feature",
      "properties": {
        "norad_id": 38833,
        "name": "GPS BIIF-3  (PRN 24)",
        "group": "gps-ops",
        "lat": -24.36030411693135,
        "lon": 131.44733814238288,
        "alt_km": 20217.38466688128,
        "timestamp": "2025-12-18T07:01:54.848270+00:00",
        "meta_object_name": "GPS BIIF-3  (PRN 24)",
        "meta_object_id": "2012-053A",
        "meta_epoch": "2025-12-17T20:05:06.382752",
        "meta_mean_motion": 2.00565081,
        "meta_eccentricity": 0.0176009,
        "meta_inclination": 53.5589,
        "meta_ra_of_asc_node": 151.0299,
        "meta_arg_of_pericenter": 64.0689,
        "meta_mean_anomaly": 297.7246,
        "meta_ephemeris_type": 0,
        "meta_classification_type": "U",
        "meta_norad_cat_id": 38833,
        "meta_element_set_no": 999,
        "meta_rev_at_epoch": 9580,
        "meta_bstar": 0,
        "meta_mean_motion_dot": 6.4e-07,
        "meta_mean_motion_ddot": 0,
        "tle_line1": "1 38833U 12053A   25351.83687943  .00000064  00000+0  00000+0 0  9998",
        "tle_line2": "2 38833  53.5589 151.0299 0176009  64.0689 297.7246  2.00565081 95801"
      },
      "geometry": {
        "type": "Point",
        "coordinates": [
          131.44733814238288,
          -24.36030411693135
        ]
      }
    },
    {
      "type": "Feature",
      "properties": {
        "norad_id": 39166,
        "name": "GPS BIIF-4  (PRN 27)",
        "group": "gps-ops",
        "lat": 49.72379197978284,
        "lon": -26.900192064074496,
        "alt_km": 19833.65252329663,
        "timestamp": "2025-12-18T07:01:54.848281+00:00",
        "meta_object_name": "GPS BIIF-4  (PRN 27)",
        "meta_object_id": "2013-023A",
        "meta_epoch": "2025-12-15T04:59:33.811872",
        "meta_mean_motion": 2.00564736,
        "meta_eccentricity": 0.01378529,
        "meta_inclination": 54.65,
        "meta_ra_of_asc_node": 276.4679,
        "meta_arg_of_pericenter": 48.4851,
        "meta_mean_anomaly": 312.7012,
        "meta_ephemeris_type": 0,
        "meta_classification_type": "U",
        "meta_norad_cat_id": 39166,
        "meta_element_set_no": 999,
        "meta_rev_at_epoch": 9219,
        "meta_bstar": 0,
        "meta_mean_motion_dot": -6.8e-07,
        "meta_mean_motion_ddot": 0,
        "tle_line1": "1 39166U 13023A   25349.20803023 -.00000068  00000+0  00000+0 0  9998",
        "tle_line2": "2 39166  54.6500 276.4679 0137852  48.4851 312.7012  2.00564736 92194"
      },
      "geometry": {
        "type": "Point",
        "coordinates": [
          -26.900192064074496,
          49.72379197978284
        ]
      }
    },
    {
      "type": "Feature",
      "properties": {
        "norad_id": 39533,
        "name": "GPS BIIF-5  (PRN 30)",
        "group": "gps-ops",
        "lat": 49.5812353987249,
        "lon": -143.35505944908095,
        "alt_km": 20366.723350865097,
        "timestamp": "2025-12-18T07:01:54.848292+00:00",
        "meta_object_name": "GPS BIIF-5  (PRN 30)",
        "meta_object_id": "2014-008A",
        "meta_epoch": "2025-12-17T04:42:21.782016",
        "meta_mean_motion": 2.00574699,
        "meta_eccentricity": 0.00793343,
        "meta_inclination": 53.632,
        "meta_ra_of_asc_node": 156.7429,
        "meta_arg_of_pericenter": 226.5757,
        "meta_mean_anomaly": 132.7662,
        "meta_ephemeris_type": 0,
        "meta_classification_type": "U",
        "meta_norad_cat_id": 39533,
        "meta_element_set_no": 999,
        "meta_rev_at_epoch": 8603,
        "meta_bstar": 0,
        "meta_mean_motion_dot": 7.8e-07,
        "meta_mean_motion_ddot": 0,
        "tle_line1": "1 39533U 14008A   25351.19608544  .00000078  00000+0  00000+0 0  9992",
        "tle_line2": "2 39533  53.6320 156.7429 0079334 226.5757 132.7662  2.00574699 86034"
      },
      "geometry": {
        "type": "Point",
        "coordinates": [
          -143.35505944908095,
          49.5812353987249
        ]
      }
    },
    {
      "type": "Feature",
      "properties": {
        "norad_id": 39741,
        "name": "GPS BIIF-6  (PRN 06)",
        "group": "gps-ops",
        "lat": -37.243715216980064,
        "lon": -171.319874179941,
        "alt_km": 20190.894374401207,
        "timestamp": "2025-12-18T07:01:54.848304+00:00",
        "meta_object_name": "GPS BIIF-6  (PRN 06)",
        "meta_object_id": "2014-026A",
        "meta_epoch": "2025-12-17T11:30:51.107616",
        "meta_mean_motion": 2.00561119,
        "meta_eccentricity": 0.00393141,
        "meta_inclination": 56.5818,
        "meta_ra_of_asc_node": 338.592,
        "meta_arg_of_pericenter": 318.961,
        "meta_mean_anomaly": 40.7519,
        "meta_ephemeris_type": 0,
        "meta_classification_type": "U",
        "meta_norad_cat_id": 39741,
        "meta_element_set_no": 999,
        "meta_rev_at_epoch": 8489,
        "meta_bstar": 0,
        "meta_mean_motion_dot": -8.5e-07,
        "meta_mean_motion_ddot": 0,
        "tle_line1": "1 39741U 14026A   25351.47975819 -.00000085  00000+0  00000+0 0  9995",
        "tle_line2": "2 39741  56.5818 338.5920 0039314 318.9610  40.7519  2.00561119 84897"
      },
      "geometry": {
        "type": "Point",
        "coordinates": [
          -171.319874179941,
          -37.243715216980064
        ]
      }
    },
    {
      "type": "Feature",
      "properties": {
        "norad_id": 40105,
        "name": "GPS BIIF-7  (PRN 09)",
        "group": "gps-ops",
        "lat": 12.369013248328184,
        "lon": -93.07688013799763,
        "alt_km": 20118.486057327485,
        "timestamp": "2025-12-18T07:01:54.848315+00:00",
        "meta_object_name": "GPS BIIF-7  (PRN 09)",
        "meta_object_id": "2014-045A",
        "meta_epoch": "2025-12-16T13:40:35.692320",
        "meta_mean_motion": 2.00572829,
        "meta_eccentricity": 0.00326078,
        "meta_inclination": 55.2314,
        "meta_ra_of_asc_node": 95.7461,
        "meta_arg_of_pericenter": 119.9914,
        "meta_mean_anomaly": 240.3146,
        "meta_ephemeris_type": 0,
        "meta_classification_type": "U",
        "meta_norad_cat_id": 40105,
        "meta_element_set_no": 999,
        "meta_rev_at_epoch": 8241,
        "meta_bstar": 0,
        "meta_mean_motion_dot": -4.2e-07,
        "meta_mean_motion_ddot": 0,
        "tle_line1": "1 40105U 14045A   25350.56985755 -.00000042  00000+0  00000+0 0  9994",
        "tle_line2": "2 40105  55.2314  95.7461 0032607 119.9914 240.3146  2.00572829 82416"
      },
      "geometry": {
        "type": "Point",
        "coordinates": [
          -93.07688013799763,
          12.369013248328184
        ]
      }
    },
    {
      "type": "Feature",
      "properties": {
        "norad_id": 40294,
        "name": "GPS BIIF-8  (PRN 03)",
        "group": "gps-ops",
        "lat": -53.15673844819394,
        "lon": -81.45416318989898,
        "alt_km": 20349.270670515925,
        "timestamp": "2025-12-18T07:01:54.848326+00:00",
        "meta_object_name": "GPS BIIF-8  (PRN 03)",
        "meta_object_id": "2014-068A",
        "meta_epoch": "2025-12-16T22:42:57.008160",
        "meta_mean_motion": 2.00565217,
        "meta_eccentricity": 0.00607888,
        "meta_inclination": 56.8609,
        "meta_ra_of_asc_node": 37.9832,
        "meta_arg_of_pericenter": 69.0803,
        "meta_mean_anomaly": 291.6294,
        "meta_ephemeris_type": 0,
        "meta_classification_type": "U",
        "meta_norad_cat_id": 40294,
        "meta_element_set_no": 999,
        "meta_rev_at_epoch": 8155,
        "meta_bstar": 0,
        "meta_mean_motion_dot": -7.8e-07,
        "meta_mean_motion_ddot": 0,
        "tle_line1": "1 40294U 14068A   25350.94649315 -.00000078  00000+0  00000+0 0  9998",
        "tle_line2": "2 40294  56.8609  37.9832 0060788  69.0803 291.6294  2.00565217 81552"
      },
      "geometry": {
        "type": "Point",
        "coordinates": [
          -81.45416318989898,
          -53.15673844819394
        ]
      }
    },
    {
      "type": "Feature",
      "properties": {
        "norad_id": 40534,
        "name": "GPS BIIF-9  (PRN 26)",
        "group": "gps-ops",
        "lat": 15.677908601251374,
        "lon": 19.546108340490548,
        "alt_km": 20327.728720334602,
        "timestamp": "2025-12-18T07:01:54.848338+00:00",
        "meta_object_name": "GPS BIIF-9  (PRN 26)",
        "meta_object_id": "2015-013A",
        "meta_epoch": "2025-12-17T13:48:02.835648",
        "meta_mean_motion": 2.00562371,
        "meta_eccentricity": 0.01072439,
        "meta_inclination": 53.197,
        "meta_ra_of_asc_node": 211.6899,
        "meta_arg_of_pericenter": 38.596,
        "meta_mean_anomaly": 322.2597,
        "meta_ephemeris_type": 0,
        "meta_classification_type": "U",
        "meta_norad_cat_id": 40534,
        "meta_element_set_no": 999,
        "meta_rev_at_epoch": 7818,
        "meta_bstar": 0,
        "meta_mean_motion_dot": 8.5e-07,
        "meta_mean_motion_ddot": 0,
        "tle_line1": "1 40534U 15013A   25351.57503282  .00000085  00000+0  00000+0 0  9995",
        "tle_line2": "2 40534  53.1970 211.6899 0107243  38.5960 322.2597  2.00562371 78187"
      },
      "geometry": {
        "type": "Point",
        "coordinates": [
          19.546108340490548,
          15.677908601251374
        ]
      }
    }
  ]
}